GALAXY 25 (G-25)        
1 24812U 97026A   22235.08591104 -.00000010  00000+0  00000+0 0  9993
2 24812   3.8518  82.9989 0002955  40.8027 304.6008  1.00270461 92396
INTELSAT 5 (IS-5)       
1 24916U 97046A   22234.59580529 -.00000068  00000+0  00000+0 0  9997
2 24916   7.3649  60.5934 0003733 118.6420 172.2822  1.00271610 91639
GALAXY 11 (G-11)        
1 26038U 99071A   22235.43407735 -.00000169  00000+0  00000+0 0  9997
2 26038   3.1712  86.8887 0000466 204.0152 103.9722  1.00272146 83109
INTELSAT 9 (IS-9)       
1 26451U 00043A   22234.43369447 -.00000294  00000+0  00000+0 0  9992
2 26451   7.3501  60.7752 0002186 106.1757 269.8990  1.00274337 80869
INTELSAT 1R (IS-1R)     
1 26608U 00072A   22235.47947410 -.00000145  00000+0  00000+0 0  9990
2 26608   4.6272  80.0268 0000628 309.5054 271.9131  1.00271712 79675
INTELSAT 10 (IS-10)     
1 26766U 01019A   22234.60956378  .00000028  00000+0  00000+0 0  9993
2 26766   5.7305  72.8065 0002234  73.0272 222.3133  1.00274512 31630
INTELSAT 901 (IS-901)   
1 26824U 01024A   22234.52966066 -.00000206  00000+0  00000+0 0  9999
2 26824   0.0545 276.1888 0000702 249.5709 328.2214  1.00272411  8999
INTELSAT 902 (IS-902)   
1 26900U 01039A   22234.54077264 -.00000288  00000+0  00000+0 0  9995
2 26900   2.5670  88.2989 0002567  61.9388 325.1677  1.00272922 76715
INTELSAT 904 (IS-904)   
1 27380U 02007A   22235.04007788 -.00000220  00000+0  00000+0 0  9990
2 27380   3.3995  85.2490 0002854  79.1023 151.8870  1.00272420 75101
DIRECTV 5 (TEMPO 1)     
1 27426U 02023A   22234.62905866 -.00000061  00000+0  00000+0 0  9999
2 27426   1.2916  92.4721 0003115  65.9738 288.7973  1.00272549 74134
INTELSAT 905 (IS-905)   
1 27438U 02027A   22235.03452399 -.00000191  00000+0  00000+0 0  9994
2 27438   3.2213  85.9864 0002571  74.9810 158.2765  1.00271867 73984
GALAXY 3C (G-3C)        
1 27445U 02030A   22235.10510000 -.00000157  00000+0  00000+0 0  9990
2 27445   0.1401  84.2688 0000549 208.6568 341.4370  1.00272637 73975
INTELSAT 906 (IS-906)   
1 27513U 02041A   22235.09146553  .00000009  00000+0  00000+0 0  9999
2 27513   2.2370  89.7597 0003096  60.0390 278.6274  1.00271950 72993
GALAXY 12 (G-12)        
1 27715U 03013B   22235.47967580  .00000052  00000+0  00000+0 0  9994
2 27715   3.4333  84.8810 0001880  89.4357 201.1130  1.00273374 71038
GALAXY 23 (G-23)        
1 27854U 03034A   22234.61640214  .00000009  00000+0  00000+0 0  9990
2 27854   0.0590 267.2979 0003023 250.5296 273.9823  1.00271426 69755
GALAXY 13 (HORIZONS-1)  
1 27954U 03044A   22235.19771649  .00000044  00000+0  00000+0 0  9992
2 27954   0.0270 101.2472 0001231  85.7798  88.5875  1.00272510 69178
INTELSAT 10-02          
1 28358U 04022A   22234.87479778 -.00000015  00000+0  00000+0 0  9999
2 28358   0.0479 273.0389 0000921 272.2240  99.8278  1.00271280 66647
XM-3 (RHYTHM)           
1 28626U 05008A   22235.10743856 -.00000210  00000+0  00000+0 0  9997
2 28626   0.0160 164.2742 0001508  19.5144 101.1624  1.00271372 64083
DIRECTV 8               
1 28659U 05019A   22235.49181267 -.00000004  00000+0  00000+0 0  9990
2 28659   0.0132 114.1371 0002648  51.7038 223.9155  1.00272490 63214
GALAXY 28 (G-28)        
1 28702U 05022A   22235.43627861 -.00000190  00000+0  00000+0 0  9998
2 28702   0.0156  53.9810 0002720  91.1150 254.6566  1.00270273 62854
GALAXY 14 (G-14)        
1 28790U 05030A   22235.10379420  .00000150  00000+0  00000+0 0  9998
2 28790   1.4261  91.5731 0001893  59.3089 250.7570  1.00270089 62329
GALAXY 15 (G-15)        
1 28884U 05041A   22234.70726323  .00000074  00000+0  00000+0 0  9992
2 28884   0.0127 259.4115 0001793 260.2909 292.9761  1.00275968 61626
SPACEWAY 2              
1 28903U 05046B   22234.64215821  .00000098  00000+0  00000+0 0  9994
2 28903   2.0526  87.2471 0000344 224.8233 111.1208  1.00271870 37351
GALAXY 16 (G-16)        
1 29236U 06023A   22235.49697175 -.00000131  00000+0  00000+0 0  9999
2 29236   0.0607 275.9948 0003013 251.4984 244.1621  1.00270606 59298
DIRECTV 9S              
1 29494U 06043A   22234.63660365 -.00000117  00000+0  00000+0 0  9997
2 29494   0.0128 145.1140 0002764  13.7561 300.0213  1.00271838 37402
XM-4 (BLUES)            
1 29520U 06049A   22234.57017144 -.00000210  00000+0  00000+0 0  9991
2 29520   0.0679 297.4926 0001725  23.2290 130.2663  1.00271035 37497
GALAXY 17 (G-17)        
1 31307U 07016B   22235.43549243 -.00000179  00000+0  00000+0 0  9992
2 31307   0.0196  99.7679 0002611  70.0825 227.6264  1.00272431 56102
DIRECTV 10              
1 31862U 07032A   22234.63879420 -.00000107  00000+0  00000+0 0  9991
2 31862   0.0056 333.5716 0000030 339.8302 144.6895  1.00271778 31613
SPACEWAY 3              
1 32018U 07036A   22234.49362647 -.00000156  00000+0  00000+0 0  9995
2 32018   0.3899  90.1655 0000107  98.6425 224.7122  1.00272115 55147
INTELSAT 11 (IS-11)     
1 32253U 07044B   22235.10049242 -.00000273  00000+0  00000+0 0  9997
2 32253   0.0279 109.9262 0001728  66.5466 148.0903  1.00268643 54559
HORIZONS-2              
1 32388U 07063B   22235.08104948 -.00000179  00000+0  00000+0 0  9994
2 32388   0.0137  85.3358 0003400  18.9960 244.9716  0.99714331 53906
DIRECTV 11              
1 32729U 08013A   22234.63660365 -.00000130  00000+0  00000+0 0  9996
2 32729   0.0171 337.2606 0000090 258.1059 225.5260  1.00271239 31618
GALAXY 18 (G-18)        
1 32951U 08024A   22235.19215944  .00000021  00000+0  00000+0 0  9994
2 32951   0.0125 175.5482 0002959 346.4755 115.6098  1.00271366 52105
INTELSAT 25 (IS-25)     
1 33153U 08034A   22234.52966066 -.00000228  00000+0  00000+0 0  9994
2 33153   0.0162 129.1957 0003027  32.9159 327.8647  1.00273024 51711
GALAXY 19 (G-19)        
1 33376U 08045A   22235.49776241 -.00000143  00000+0  00000+0 0  9990
2 33376   0.0616 280.2307 0002862 243.7248 249.9931  1.00269906 50866
FM-5                    
1 35493U 09034A   22235.43864538 -.00000204  00000+0  00000+0 0  9990
2 35493   0.0220 112.1648 0000471 246.6890  44.6165  1.00268243 48004
INTELSAT 14 (IS-14)     
1 36097U 09064A   22234.58452330 -.00000278  00000+0  00000+0 0  9993
2 36097   0.0114 127.4427 0002394  38.6809 330.1673  1.00272017 46623
INTELSAT 15 (IS-15)     
1 36106U 09067A   22234.56577031 -.00000190  00000+0  00000+0 0  9994
2 36106   0.0194 330.0229 0002186 187.8958 101.7498  1.00270994 27241
DIRECTV 12              
1 36131U 09075A   22235.36285035 -.00000108  00000+0  00000+0 0  9999
2 36131   0.0395 273.6980 0000272 336.6190 109.2225  1.00272389 46415
INTELSAT 16 (IS-16)     
1 36397U 10006A   22235.47335171 -.00000249  00000+0  00000+0 0  9994
2 36397   0.0009 308.7535 0002213 213.1407 264.0566  1.00270887 45748
XM-5                    
1 37185U 10053A   22235.16924576 -.00000028  00000+0  00000+0 0  9996
2 37185   0.0137 121.9577 0000825 238.6976 276.5125  1.00271535 43464
INTELSAT 17 (IS-17)     
1 37238U 10065B   22235.46133644 -.00000006  00000+0  00000+0 0  9995
2 37238   0.0312 216.0598 0002569 297.5068  50.2334  1.00272356 42943
INTELSAT NEW DAWN       
1 37392U 11016A   22235.10396781  .00000151  00000+0  00000+0 0  9997
2 37392   0.0136 166.5590 0000893 325.3073 269.7407  1.00271018 41539
INTELSAT 18 (IS-18)     
1 37834U 11056A   22234.67688144  .00000048  00000+0  00000+0 0  9995
2 37834   0.0319 346.7512 0002201 173.6460 234.2246  1.00270818 39822
INTELSAT 22 (IS-22)     
1 38098U 12011A   22235.38521428 -.00000063  00000+0  00000+0 0  9998
2 38098   0.0292 100.1715 0002844  60.5204  21.7222  1.00271059 38072
INTELSAT 19 (IS-19)     
1 38356U 12030A   22235.48121811 -.00000061  00000+0  00000+0 0  9997
2 38356   0.0149 106.3667 0003046  54.5146 150.1022  1.00272432 37538
INTELSAT 20 (IS-20)     
1 38740U 12043A   22235.08591104 -.00000029  00000+0  00000+0 0  9994
2 38740   0.0122 146.4235 0001451  45.5522 238.7994  1.00271561 36855
INTELSAT 21 (IS-21)     
1 38749U 12045A   22235.48359522 -.00000289  00000+0  00000+0 0  9993
2 38749   0.0185 106.3936 0002184  60.9210 280.5249  1.00271285 36665
INTELSAT 23 (IS-23)     
1 38867U 12057A   22235.12271432 -.00000289  00000+0  00000+0 0  9991
2 38867   0.0098 170.8248 0000462  18.2094 133.5456  1.00263490 36121
FM-6                    
1 39360U 13058A   22235.16924576 -.00000021  00000+0  00000+0 0  9994
2 39360   0.0545 271.1228 0000601 139.2834 225.7930  1.00269967 32369
INTELSAT 30 (IS-30)     
1 40271U 14062A   22234.89669446 -.00000155  00000+0  00000+0 0  9992
2 40271   0.0072 153.9820 0001822 278.4566 126.4871  1.00272377 28787
DIRECTV 14              
1 40333U 14078B   22234.63660365 -.00000130  00000+0  00000+0 0  9994
2 40333   0.0164 107.3733 0000886 125.7395 227.7571  1.00271946 28083
DIRECTV 15              
1 40663U 15026A   22235.49459610 -.00000107  00000+0  00000+0 0  9992
2 40663   0.0138 109.4996 0000489 268.7398  28.7049  1.00269075 26564
SKY MEXICO-1            
1 40664U 15026B   22235.10743856 -.00000239  00000+0  00000+0 0  9995
2 40664   0.0249 100.2847 0002000  75.2032 115.8079  1.00268731 26557
INTELSAT 34 (IS-34)     
1 40874U 15039A   22235.12827146 -.00000290  00000+0  00000+0 0  9996
2 40874   0.0107 290.6906 0000790  87.5381 303.8608  1.00271502 25635
INTELSAT 31 (IS-31)     
1 41581U 16035A   22234.90343708 -.00000155  00000+0  00000+0 0  9991
2 41581   0.0187 199.2478 0001358  50.2132 311.8796  1.00271766 22703
INTELSAT 36 (IS-36)     
1 41747U 16053A   22235.08591104 -.00000029  00000+0  00000+0 0  9990
2 41747   0.0235  93.3832 0002931 263.0363  74.3675  1.00270240 21967
INTELSAT 33E (IS-33E)   
1 41748U 16053B   22235.46011562  .00000044  00000+0  00000+0 0  9994
2 41748   0.0030  34.6279 0001807 141.9751  20.7661  1.00274205 22247
INTELSAT 32E (IS-32E)   
1 41945U 17007B   22235.10049242 -.00000274  00000+0  00000+0 0  9996
2 41945   0.0254 117.5263 0000289 243.3685 323.4896  1.00267799 20267
INTELSAT 35E (IS-35E)   
1 42818U 17041A   22235.44128035 -.00000243  00000+0  00000+0 0  9995
2 42818   0.0243 126.0266 0001533  42.2670 287.7762  1.00268859 18838
INTELSAT 37E (IS-37E)   
1 42950U 17059A   22235.44450677 -.00000145  00000+0  00000+0 0  9992
2 42950   0.0129 137.6114 0002529  25.6543 310.4503  1.00271196 18079
AZERSPACE 2 (IS-38)     
1 43632U 18074A   22235.09702258  .00000132  00000+0  00000+0 0  9999
2 43632   0.0134 110.7622 0001377  54.4429 246.1882  1.00271070 14467
HORIZONS-3E             
1 43633U 18074B   22235.48182851 -.00000035  00000+0  00000+0 0  9997
2 43633   0.0189 331.6951 0002056 330.3894  12.1124  1.00271088 14340
AT&T T-16               
1 44333U 19034A   22235.49618161 -.00000120  00000+0  00000+0 0  9996
2 44333   0.0240 242.9934 0000629 139.1681  27.3620  1.00269669 11656
INTELSAT 39 (IS-39)     
1 44476U 19049B   22234.79840954  .00000029  00000+0  00000+0 0  9996
2 44476   0.0105 133.7744 0000997 209.5180 337.1405  1.00272084 11157
GALAXY 30 (G-30)        
1 46114U 20056C   22235.49382687  .00000032  00000+0  00000+0 0  9993
2 46114   0.0147 110.3855 0001882  52.4818 221.6663  1.00271376  7426
